[{"OBJECT_NAME":"DONGPO 08","OBJECT_ID":"2022-167E","EPOCH":"2026-03-09T22:57:52.742880","MEAN_MOTION":15.31542505,"ECCENTRICITY":0.00092155,"INCLINATION":97.6764,"RA_OF_ASC_NODE":233.3854,"ARG_OF_PERICENTER":153.9158,"MEAN_ANOMALY":206.2548,"EPHEMERIS_TYPE":0,"CLASSIFICATION_TYPE":"U","NORAD_CAT_ID":54686,"ELEMENT_SET_NO":999,"REV_AT_EPOCH":18012,"BSTAR":0.0004734784,"MEAN_MOTION_DOT":0.0001437,"MEAN_MOTION_DDOT":0},{"OBJECT_NAME":"STARLINK-31063","OBJECT_ID":"2023-192S","EPOCH":"2026-03-09T23:18:53.049312","MEAN_MOTION":15.30191527,"ECCENTRICITY":0.0001071,"INCLINATION":53.1605,"RA_OF_ASC_NODE":51.0877,"ARG_OF_PERICENTER":74.1855,"MEAN_ANOMALY":285.9264,"EPHEMERIS_TYPE":0,"CLASSIFICATION_TYPE":"U","NORAD_CAT_ID":58547,"ELEMENT_SET_NO":999,"REV_AT_EPOCH":12617,"BSTAR":3.3768315e-5,"MEAN_MOTION_DOT":6.41e-6,"MEAN_MOTION_DDOT":0}]
